{
  "type": "FeatureCollection",
  "features": [
    {
      "type": "Feature",
      "properties": {
        "norad_id": 64902,
        "name": "CO3D 2",
        "group": "resource",
        "lat": -70.9165317965574,
        "lon": 79.91717725877629,
        "alt_km": 513.0496016084662,
        "timestamp": "2025-12-07T09:35:09.450106+00:00",
        "meta_object_name": "CO3D 2",
        "meta_object_id": "2025-156D",
        "meta_epoch": "2025-12-06T21:15:57.794976",
        "meta_mean_motion": 15.20210595,
        "meta_eccentricity": 7.915e-05,
        "meta_inclination": 97.4344,
        "meta_ra_of_asc_node": 57.2359,
        "meta_arg_of_pericenter": 99.0952,
        "meta_mean_anomaly": 261.0373,
        "meta_ephemeris_type": 0,
        "meta_classification_type": "U",
        "meta_norad_cat_id": 64902,
        "meta_element_set_no": 999,
        "meta_rev_at_epoch": 2031,
        "meta_bstar": 2.8087489e-05,
        "meta_mean_motion_dot": 5.41e-06,
        "meta_mean_motion_ddot": 0,
        "tle_line1": "1 64902U 25156D   25340.88608559  .00000541  00000+0  28087-4 0  9991",
        "tle_line2": "2 64902  97.4344  57.2359 0000791  99.0952 261.0373 15.20210595 20314"
      },
      "geometry": {
        "type": "Point",
        "coordinates": [
          79.91717725877629,
          -70.9165317965574
        ]
      }
    },
    {
      "type": "Feature",
      "properties": {
        "norad_id": 64903,
        "name": "CO3D 1",
        "group": "resource",
        "lat": -71.68746166453414,
        "lon": 80.97959657027648,
        "alt_km": 513.1616257072656,
        "timestamp": "2025-12-07T09:35:09.450117+00:00",
        "meta_object_name": "CO3D 1",
        "meta_object_id": "2025-156E",
        "meta_epoch": "2025-12-06T21:16:11.137728",
        "meta_mean_motion": 15.20207827,
        "meta_eccentricity": 9.566e-05,
        "meta_inclination": 97.4344,
        "meta_ra_of_asc_node": 57.2362,
        "meta_arg_of_pericenter": 97.127,
        "meta_mean_anomaly": 263.0074,
        "meta_ephemeris_type": 0,
        "meta_classification_type": "U",
        "meta_norad_cat_id": 64903,
        "meta_element_set_no": 999,
        "meta_rev_at_epoch": 2031,
        "meta_bstar": 0.00020916819,
        "meta_mean_motion_dot": 4.464e-05,
        "meta_mean_motion_ddot": 0,
        "tle_line1": "1 64903U 25156E   25340.88624002  .00004464  00000+0  20917-3 0  9994",
        "tle_line2": "2 64903  97.4344  57.2362 0000956  97.1270 263.0074 15.20207827 20318"
      },
      "geometry": {
        "type": "Point",
        "coordinates": [
          80.97959657027648,
          -71.68746166453414
        ]
      }
    },
    {
      "type": "Feature",
      "properties": {
        "norad_id": 66514,
        "name": "SENTINEL-6B",
        "group": "resource",
        "lat": -55.71273984818792,
        "lon": 132.84223928689445,
        "alt_km": 1316.2142487098217,
        "timestamp": "2025-12-07T09:35:09.450128+00:00",
        "meta_object_name": "SENTINEL-6B",
        "meta_object_id": "2025-264A",
        "meta_epoch": "2025-12-05T07:31:22.416096",
        "meta_mean_motion": 12.85877769,
        "meta_eccentricity": 0.00115488,
        "meta_inclination": 66.0393,
        "meta_ra_of_asc_node": 177.917,
        "meta_arg_of_pericenter": 268.4031,
        "meta_mean_anomaly": 91.5664,
        "meta_ephemeris_type": 0,
        "meta_classification_type": "U",
        "meta_norad_cat_id": 66514,
        "meta_element_set_no": 999,
        "meta_rev_at_epoch": 233,
        "meta_bstar": 0.00030181714,
        "meta_mean_motion_dot": 1.3e-07,
        "meta_mean_motion_ddot": 0,
        "tle_line1": "1 66514U 25264A   25339.31345389  .00000013  00000+0  30182-3 0  9999",
        "tle_line2": "2 66514  66.0393 177.9170 0011548 268.4031  91.5664 12.85877769  2335"
      },
      "geometry": {
        "type": "Point",
        "coordinates": [
          132.84223928689445,
          -55.71273984818792
        ]
      }
    }
  ]
}